{
 "generated_at": "2026-06-25T08:23:36Z",
 "sources": [
  {
   "name": "CelesTrak",
   "url": "https://celestrak.org/NORAD/elements/",
   "license": "frei verfügbar; Attribution. Ursprünglich USSPACECOM/Space-Track."
  },
  {
   "name": "GCAT (J. McDowell, planet4589.org)",
   "url": "https://planet4589.org/space/gcat/",
   "license": "CC-BY 4.0"
  }
 ],
 "satellites": [
  {
   "norad": 58648,
   "name": "TIANMU-1 14",
   "intl": "2023-205D",
   "group": "weather",
   "gcat": {
    "class": "B",
    "category": "MET",
    "owner": "TIANMU",
    "state": "CN"
   },
   "omm": {
    "OBJECT_NAME": "TIANMU-1 14",
    "OBJECT_ID": "2023-205D",
    "EPOCH": "2026-06-24T07:34:28.217568",
    "MEAN_MOTION": 15.26922063,
    "ECCENTRICITY": 0.00061409,
    "INCLINATION": 97.34,
    "RA_OF_ASC_NODE": 195.9646,
    "ARG_OF_PERICENTER": 315.9553,
    "MEAN_ANOMALY": 44.1197,
    "EPHEMERIS_TYPE": 0,
    "CLASSIFICATION_TYPE": "U",
    "NORAD_CAT_ID": 58648,
    "ELEMENT_SET_NO": 999,
    "REV_AT_EPOCH": 13859,
    "BSTAR": 0.0001868027,
    "MEAN_MOTION_DOT": 0.00004867,
    "MEAN_MOTION_DDOT": 0
   }
  },
  {
   "norad": 58700,
   "name": "TIANMU-1 15",
   "intl": "2024-004A",
   "group": "weather",
   "gcat": {
    "class": "B",
    "category": "MET",
    "owner": "TIANMU",
    "state": "CN"
   },
   "omm": {
    "OBJECT_NAME": "TIANMU-1 15",
    "OBJECT_ID": "2024-004A",
    "EPOCH": "2026-06-23T10:54:57.018240",
    "MEAN_MOTION": 15.27076957,
    "ECCENTRICITY": 0.00060849,
    "INCLINATION": 97.4673,
    "RA_OF_ASC_NODE": 0.6467,
    "ARG_OF_PERICENTER": 339.0112,
    "MEAN_ANOMALY": 21.0876,
    "EPHEMERIS_TYPE": 0,
    "CLASSIFICATION_TYPE": "U",
    "NORAD_CAT_ID": 58700,
    "ELEMENT_SET_NO": 999,
    "REV_AT_EPOCH": 13673,
    "BSTAR": 0.00017151603,
    "MEAN_MOTION_DOT": 0.00004482,
    "MEAN_MOTION_DDOT": 0
   }
  },
  {
   "norad": 58701,
   "name": "TIANMU-1 16",
   "intl": "2024-004B",
   "group": "weather",
   "gcat": {
    "class": "B",
    "category": "MET",
    "owner": "TIANMU",
    "state": "CN"
   },
   "omm": {
    "OBJECT_NAME": "TIANMU-1 16",
    "OBJECT_ID": "2024-004B",
    "EPOCH": "2026-06-24T07:07:57.191808",
    "MEAN_MOTION": 15.26810146,
    "ECCENTRICITY": 0.00051227,
    "INCLINATION": 97.4619,
    "RA_OF_ASC_NODE": 0.7182,
    "ARG_OF_PERICENTER": 341.6523,
    "MEAN_ANOMALY": 18.453,
    "EPHEMERIS_TYPE": 0,
    "CLASSIFICATION_TYPE": "U",
    "NORAD_CAT_ID": 58701,
    "ELEMENT_SET_NO": 999,
    "REV_AT_EPOCH": 13686,
    "BSTAR": 0.00018069241,
    "MEAN_MOTION_DOT": 0.00004687,
    "MEAN_MOTION_DDOT": 0
   }
  },
  {
   "norad": 58702,
   "name": "TIANMU-1 17",
   "intl": "2024-004C",
   "group": "weather",
   "gcat": {
    "class": "B",
    "category": "MET",
    "owner": "TIANMU",
    "state": "CN"
   },
   "omm": {
    "OBJECT_NAME": "TIANMU-1 17",
    "OBJECT_ID": "2024-004C",
    "EPOCH": "2026-06-24T06:47:00.813984",
    "MEAN_MOTION": 15.2680902,
    "ECCENTRICITY": 0.0004826,
    "INCLINATION": 97.4648,
    "RA_OF_ASC_NODE": 1.1911,
    "ARG_OF_PERICENTER": 349.302,
    "MEAN_ANOMALY": 10.8115,
    "EPHEMERIS_TYPE": 0,
    "CLASSIFICATION_TYPE": "U",
    "NORAD_CAT_ID": 58702,
    "ELEMENT_SET_NO": 999,
    "REV_AT_EPOCH": 13685,
    "BSTAR": 0.00018412051,
    "MEAN_MOTION_DOT": 0.00004777,
    "MEAN_MOTION_DDOT": 0
   }
  },
  {
   "norad": 58703,
   "name": "TIANMU-1 18",
   "intl": "2024-004D",
   "group": "weather",
   "gcat": {
    "class": "B",
    "category": "MET",
    "owner": "TIANMU",
    "state": "CN"
   },
   "omm": {
    "OBJECT_NAME": "TIANMU-1 18",
    "OBJECT_ID": "2024-004D",
    "EPOCH": "2026-06-24T07:45:39.517920",
    "MEAN_MOTION": 15.27065777,
    "ECCENTRICITY": 0.00033287,
    "INCLINATION": 97.4664,
    "RA_OF_ASC_NODE": 1.4919,
    "ARG_OF_PERICENTER": 349.9344,
    "MEAN_ANOMALY": 10.1827,
    "EPHEMERIS_TYPE": 0,
    "CLASSIFICATION_TYPE": "U",
    "NORAD_CAT_ID": 58703,
    "ELEMENT_SET_NO": 999,
    "REV_AT_EPOCH": 13686,
    "BSTAR": 0.00018074041,
    "MEAN_MOTION_DOT": 0.00004724,
    "MEAN_MOTION_DDOT": 0
   }
  },
  {
   "norad": 58660,
   "name": "TIANMU-1 19",
   "intl": "2023-208A",
   "group": "weather",
   "gcat": {
    "class": "B",
    "category": "MET",
    "owner": "TIANMU",
    "state": "CN"
   },
   "omm": {
    "OBJECT_NAME": "TIANMU-1 19",
    "OBJECT_ID": "2023-208A",
    "EPOCH": "2026-06-24T06:39:39.888864",
    "MEAN_MOTION": 15.31665075,
    "ECCENTRICITY": 0.00034448,
    "INCLINATION": 97.4504,
    "RA_OF_ASC_NODE": 291.614,
    "ARG_OF_PERICENTER": 294.1862,
    "MEAN_ANOMALY": 65.9019,
    "EPHEMERIS_TYPE": 0,
    "CLASSIFICATION_TYPE": "U",
    "NORAD_CAT_ID": 58660,
    "ELEMENT_SET_NO": 999,
    "REV_AT_EPOCH": 13841,
    "BSTAR": 0.00024426232,
    "MEAN_MOTION_DOT": 0.00007391,
    "MEAN_MOTION_DDOT": 0
   }
  },
  {
   "norad": 58661,
   "name": "TIANMU-1 20",
   "intl": "2023-208B",
   "group": "weather",
   "gcat": {
    "class": "B",
    "category": "MET",
    "owner": "TIANMU",
    "state": "CN"
   },
   "omm": {
    "OBJECT_NAME": "TIANMU-1 20",
    "OBJECT_ID": "2023-208B",
    "EPOCH": "2026-06-24T07:26:09.744000",
    "MEAN_MOTION": 15.32855814,
    "ECCENTRICITY": 0.00056317,
    "INCLINATION": 97.4446,
    "RA_OF_ASC_NODE": 292.2892,
    "ARG_OF_PERICENTER": 303.0667,
    "MEAN_ANOMALY": 57.0034,
    "EPHEMERIS_TYPE": 0,
    "CLASSIFICATION_TYPE": "U",
    "NORAD_CAT_ID": 58661,
    "ELEMENT_SET_NO": 999,
    "REV_AT_EPOCH": 13851,
    "BSTAR": 0.00022073779,
    "MEAN_MOTION_DOT": 0.00006927,
    "MEAN_MOTION_DDOT": 0
   }
  },
  {
   "norad": 58662,
   "name": "TIANMU-1 21",
   "intl": "2023-208C",
   "group": "weather",
   "gcat": {
    "class": "B",
    "category": "MET",
    "owner": "TIANMU",
    "state": "CN"
   },
   "omm": {
    "OBJECT_NAME": "TIANMU-1 21",
    "OBJECT_ID": "2023-208C",
    "EPOCH": "2026-06-24T06:53:53.221056",
    "MEAN_MOTION": 15.35184841,
    "ECCENTRICITY": 0.00056782,
    "INCLINATION": 97.4506,
    "RA_OF_ASC_NODE": 294.9781,
    "ARG_OF_PERICENTER": 292.602,
    "MEAN_ANOMALY": 67.4623,
    "EPHEMERIS_TYPE": 0,
    "CLASSIFICATION_TYPE": "U",
    "NORAD_CAT_ID": 58662,
    "ELEMENT_SET_NO": 999,
    "REV_AT_EPOCH": 13865,
    "BSTAR": 0.00025479091,
    "MEAN_MOTION_DOT": 0.00008625,
    "MEAN_MOTION_DDOT": 0
   }
  },
  {
   "norad": 58663,
   "name": "TIANMU-1 22",
   "intl": "2023-208D",
   "group": "weather",
   "gcat": {
    "class": "B",
    "category": "MET",
    "owner": "TIANMU",
    "state": "CN"
   },
   "omm": {
    "OBJECT_NAME": "TIANMU-1 22",
    "OBJECT_ID": "2023-208D",
    "EPOCH": "2026-06-24T06:16:55.015968",
    "MEAN_MOTION": 15.31142284,
    "ECCENTRICITY": 0.00025622,
    "INCLINATION": 97.45,
    "RA_OF_ASC_NODE": 291.5282,
    "ARG_OF_PERICENTER": 334.35,
    "MEAN_ANOMALY": 25.7613,
    "EPHEMERIS_TYPE": 0,
    "CLASSIFICATION_TYPE": "U",
    "NORAD_CAT_ID": 58663,
    "ELEMENT_SET_NO": 999,
    "REV_AT_EPOCH": 13841,
    "BSTAR": 0.00022527929,
    "MEAN_MOTION_DOT": 0.00006699,
    "MEAN_MOTION_DDOT": 0
   }
  },
  {
   "norad": 58297,
   "name": "UMBRA-07",
   "intl": "2023-174AT",
   "group": "sar",
   "gcat": {
    "class": "B",
    "category": "IMG-R",
    "owner": "UMBRA",
    "state": "US"
   },
   "omm": {
    "OBJECT_NAME": "UMBRA-07",
    "OBJECT_ID": "2023-174AT",
    "EPOCH": "2026-06-24T03:12:34.331616",
    "MEAN_MOTION": 15.09240547,
    "ECCENTRICITY": 0.00044089,
    "INCLINATION": 97.3791,
    "RA_OF_ASC_NODE": 230.6329,
    "ARG_OF_PERICENTER": 73.9254,
    "MEAN_ANOMALY": 286.2461,
    "EPHEMERIS_TYPE": 0,
    "CLASSIFICATION_TYPE": "U",
    "NORAD_CAT_ID": 58297,
    "ELEMENT_SET_NO": 999,
    "REV_AT_EPOCH": 14446,
    "BSTAR": 0.00050972642,
    "MEAN_MOTION_DOT": 0.00008056,
    "MEAN_MOTION_DDOT": 0
   }
  }
 ]
}
